INTELSAT 10 (IS-10)     
1 26766U 01019A   20328.49098594  .00000125  00000-0  00000-0 0  9999
2 26766   4.2521  77.8480 0003858 166.4330  42.9202  1.00274855 25248
INTELSAT 901 (IS-901)   
1 26824U 01024A   20328.29771501 -.00000202  00000-0  00000+0 0  9990
2 26824   0.0397 103.9704 0001015 123.9149 274.5449  1.00271732 71212
ASTRA 2C                
1 26853U 01025A   20328.48627519  .00000138  00000-0  00000-0 0  9991
2 26853   3.2004  84.2201 0002905 148.2090  29.2453  1.00269773 24671
USA 159 (DSP 21)        
1 26880U 01033A   20328.11418365 -.00000297  00000-0  00000-0 0  9994
2 26880  10.9136  29.3318 0000716 277.0563 108.1974  1.00274789 11242
INTELSAT 902 (IS-902)   
1 26900U 01039A   20328.47153229 -.00000281  00000-0  00000-0 0  9990
2 26900   0.9973  94.9947 0003159 156.0918 291.4836  1.00270279 70342
USA 164 (MILSTAR-2 3)   
1 27168U 02001A   20328.26015108  .00000101  00000-0  00000-0 0  9997
2 27168   8.9268  31.2833 0002440 189.0431 315.0006  1.00276162 12581
ECHOSTAR 7              
1 27378U 02006A   20328.52963149  .00000001  00000-0  00000-0 0  9990
2 27378   0.0331 110.2236 0002310  85.8449 298.7657  1.00270640 30248
INTELSAT 904 (IS-904)   
1 27380U 02007A   20328.29771501 -.00000212  00000-0  00000-0 0  9992
2 27380   1.8366  91.7267 0003196 147.7404 260.9574  1.00272702 31394
TDRS 9                  
1 27389U 02011A   20328.45628120 -.00000285  00000-0  00000+0 0  9991
2 27389   7.8211  65.9679 0025570 276.3177 182.5877  1.00267494 70068
JCSAT-2A                
1 27399U 02015A   20328.58022839 -.00000295  00000-0  00000-0 0  9997
2 27399   3.2765  83.9942 0002148 177.4712 145.6162  1.00378831 68521
ASTRA 3A                
1 27400U 02015B   20328.28697675 -.00000202  00000-0  00000-0 0  9991
2 27400   6.2353  62.6131 0001223 177.8416 198.7701  1.00274587 68354
NSS-7                   
1 27414U 02019A   20328.32248635 -.00000155  00000-0  00000+0 0  9999
2 27414   4.5905  75.6197 0002439 175.5266 267.7212  1.00277085 68188
DIRECTV 5 (TEMPO 1)     
1 27426U 02023A   20328.53128898 -.00000055  00000-0  00000-0 0  9998
2 27426   0.0172 307.8884 0002899 293.0311 263.1939  1.00273609 67877
INTELSAT 905 (IS-905)   
1 27438U 02027A   20328.33308867 -.00000183  00000-0  00000-0 0  9991
2 27438   1.6573  92.5737 0002621 144.7527 280.8787  1.00271787 30996
GALAXY 3C (G-3C)        
1 27445U 02030A   20328.34573442 -.00000150  00000-0  00000-0 0  9991
2 27445   0.0198 302.5034 0001598  28.8639 120.8578  1.00270974 26131
EUTELSAT 5 WEST A       
1 27460U 02035A   20328.69590343 -.00000040  00000-0  00000+0 0  9997
2 27460   0.9384  95.2905 0005624 148.4110  64.9651  1.00270574 67371
METEOSAT-8 (MSG-1)      
1 27509U 02040B   20327.91546972  .00000137  00000-0  00000-0 0  9997
2 27509   7.0060  53.4158 0002130 184.2637 195.5878  1.00270673 66877
INTELSAT 906 (IS-906)   
1 27513U 02041A   20328.56609616  .00000015  00000-0  00000-0 0  9995
2 27513   0.6621  97.2453 0003194 151.5013  82.2095  1.00272133 66656
HISPASAT 30W-4          
1 27528U 02044A   20328.52474628  .00000119  00000-0  00000-0 0  9998
2 27528   1.4526  92.3882 0003943 153.1650 223.3088  1.00269143 22608
TDRS 10                 
1 27566U 02055A   20328.51907594  .00000093  00000-0  00000-0 0  9995
2 27566   7.1830  52.8688 0006749 275.3755 110.5315  1.00276399 65862
NSS-6                   
1 27603U 02057A   20328.60373984  .00000109  00000-0  00000-0 0  9997
2 27603   0.1992  98.0197 0004514 143.7921 229.0694  1.00271116 65671
NIMIQ 2                 
1 27632U 02062A   20328.35813227 -.00000175  00000-0  00000-0 0  9990
2 27632   4.7059  74.8628 0003159 278.0989 107.6197  1.00272206 23818
USA 167                 
1 27691U 03008A   20328.42242674  .00000056  00000-0  00000+0 0  9992
2 27691   6.9451  57.9934 0001310   9.4567  17.4950  1.00268964 11256
USA 169 (MILSTAR-2 4)   
1 27711U 03012A   20328.57623604 -.00000193  00000-0  00000-0 0  9996
2 27711   9.2865  43.8175 0003121 192.5646 186.2091  1.00271584 12589
GALAXY 12 (G-12)        
1 27715U 03013B   20328.52753782  .00000060  00000-0  00000-0 0  9999
2 27715   1.8727  91.1198 0001818 149.0382 243.7242  1.00272781 31728
ASIASAT 4               
1 27718U 03014A   20328.56094924  .00000154  00000-0  00000-0 0  9997
2 27718   0.0077 318.3579 0001770 291.4669  53.3162  1.00272287 24925
HELLAS-SAT 2            
1 27811U 03020A   20328.53434226 -.00000148  00000-0  00000-0 0  9992
2 27811   2.2918  90.5036 0001697 156.6241 273.0170  1.00271152 22478
THURAYA-2               
1 27825U 03026A   20328.20319420  .00000128  00000-0  00000-0 0  9992
2 27825   6.0830  33.3791 0004828 204.1856 302.2313  1.00273259 63975
OPTUS C1                
1 27831U 03028B   20328.57861080 -.00000148  00000-0  00000-0 0  9998
2 27831   1.7986  92.5712 0006072 144.6119 189.8699  1.00271550 32681
GALAXY 23 (G-23)        
1 27854U 03034A   20328.52919531  .00000014  00000-0  00000-0 0  9991
2 27854   0.0107 301.5337 0003206 308.4193 242.5523  1.00272486 63379
USA 170                 
1 27875U 03040A   20328.33872737 -.00000270  00000-0  00000-0 0  9991
2 27875   6.2069  63.4673 0002846 125.4499 313.5392  1.00270334 12590
GALAXY 13 (HORIZONS 1)  
1 27954U 03044A   20328.52797400  .00000049  00000-0  00000-0 0  9990
2 27954   0.0519 108.3869 0003251  75.3686 302.2809  1.00270108 26208
YAMAL 202               
1 28089U 03053A   20328.61405519 -.00000077  00000-0  00000-0 0  9999
2 28089   1.2292  93.7509 0003579 114.4748 239.4207  1.00271714 62302
UFO 11 (USA 174)        
1 28117U 03057A   20328.13767993 -.00000102  00000-0  00000-0 0  9998
2 28117   6.2410  37.6197 0002032 270.5847 239.3942  1.00271445 62045
USA 176 (DSP 22)        
1 28158U 04004A   20327.70933089 -.00000220  00000-0  00000-0 0  9990
2 28158   9.3638  38.3749 0000716 225.2687 141.1271  1.00276528 11230
ABS-4 (MOBISAT-1)       
1 28184U 04007A   20328.49369024  .00000041  00000-0  00000-0 0  9991
2 28184   0.9108  95.0794 0005092 148.2192  58.4003  1.00275167 31968
EUTELSAT 7A             
1 28187U 04008A   20328.33657812 -.00000112  00000-0  00000-0 0  9993
2 28187   0.7068  90.6858 0000684  35.4410  50.8034  0.99957312 60988
DIRECTV 7S              
1 28238U 04016A   20328.52954427  .00000002  00000-0  00000-0 0  9999
2 28238   0.0449 104.0842 0000560 222.7721 167.6804  1.00272152 60698
AMC-11 (GE-11)          
1 28252U 04017A   20328.52718889  .00000070  00000-0  00000-0 0  9991
2 28252   0.0221 317.6481 0002793 295.4128 228.7018  1.00270169 60514
INTELSAT 10-02          
1 28358U 04022A   20328.32619021 -.00000010  00000-0  00000-0 0  9995
2 28358   0.0146 269.4116 0002740 331.8231 297.9906  1.00272168 60232
ANIK F2                 
1 28378U 04027A   20328.53111450 -.00000049  00000-0  00000-0 0  9990
2 28378   0.0174 296.7014 0000212 241.8549 324.5416  1.00273683 20916
AMC-15                  
1 28446U 04041A   20328.34171052 -.00000089  00000-0  00000+0 0  9998
2 28446   0.0383  68.0885 0002813 189.1466 183.5137  1.00271573 58977
AMC-16                  
1 28472U 04048A   20328.53634867 -.00000205  00000-0  00000-0 0  9994
2 28472   0.0200 317.3051 0002843 284.7583 289.0051  1.00272773 58356
NSS-10 (AMC-12)         
1 28526U 05003A   20328.47406214 -.00000249  00000-0  00000-0 0  9990
2 28526   1.3959  93.0083 0002956 141.9706 321.1477  1.00270850 32783
XTAR-EUR                
1 28542U 05005A   20327.74664386  .00000150  00000-0  00000-0 0  9995
2 28542   0.0142 323.2362 0002525 267.8352 128.9230  1.00270380 57804
XM-3 (RHYTHM)           
1 28626U 05008A   20328.53634867 -.00000204  00000-0  00000-0 0  9991
2 28626   0.0153 311.0739 0000217 220.8599 359.0158  1.00267076 22255
INMARSAT 4-F1           
1 28628U 05009A   20328.54355197 -.00000260  00000-0  00000-0 0  9993
2 28628   3.2555  28.7888 0002850 213.7882 159.5761  1.00271335 57306
APSTAR 6                
1 28638U 05012A   20328.15512713 -.00000084  00000-0  00000-0 0  9998
2 28638   2.0408  94.7163 0005025 156.8989  29.7291  1.00270290 82002
DIRECTV 8               
1 28659U 05019A   20328.52954427  .00000002  00000-0  00000-0 0  9990
2 28659   0.0215 278.9820 0002713 336.4731 239.0965  1.00272715 56758
GALAXY 28 (G-28)        
1 28702U 05022A   20328.53556354 -.00000184  00000-0  00000-0 0  9993
2 28702   0.0133 328.7743 0000433 346.7688 211.2419  1.00269897 31695
EXPRESS-AM3             
1 28707U 05023A   20328.57386016 -.00000320  00000-0  00000-0 0  9991
2 28707   2.2095  89.3178 0000780  80.6802 202.6451  1.00269555 56463
THAICOM 4               
1 28786U 05028A   20328.36178934 -.00000362  00000-0  00000-0 0  9994
2 28786   0.0119 298.1109 0002522 298.2363  76.2301  1.00271009 31898
GALAXY 14 (G-14)        
1 28790U 05030A   20328.52832295  .00000038  00000-0  00000-0 0  9996
2 28790   0.0176   3.0602 0002447 225.3599 259.7501  1.00270833 55941
ANIK F1R                
1 28868U 05036A   20328.35816441 -.00000074  00000-0  00000-0 0  9995
2 28868   0.0418  85.7570 0000631 188.2429 170.4311  1.00272132 26084
GALAXY 15 (G-15)        
1 28884U 05041A   20328.52675271  .00000080  00000-0  00000-0 0  9998
2 28884   0.0058 351.8773 0001783 243.1777 244.5488  1.00271939 55309
SYRACUSE 3A             
1 28885U 05041B   20328.56269396  .00000130  00000-0  00000-0 0  9996
2 28885   0.0175  71.5939 0002639 163.5140  77.4611  1.00272865 55377
INMARSAT 4-F2           
1 28899U 05044A   20328.49430090  .00000011  00000-0  00000-0 0  9995
2 28899   3.1152  31.4984 0002881 211.5172  61.7541  1.00271440 55145
TELKOM 2                
1 28902U 05046A   20328.59464581 -.00000137  00000-0  00000-0 0  9995
2 28902   0.0344 108.9743 0001418 355.2319 329.8973  1.00271763 55062
SPACEWAY 2              
1 28903U 05046B   20328.60680334  .00000105  00000-0  00000-0 0  9998
2 28903   0.5642  92.3537 0000213  79.7204 330.5326  1.00271328 30970
